{
  "type": "FeatureCollection",
  "features": [
    {
      "type": "Feature",
      "properties": {
        "norad_id": 66394,
        "name": "STARLINK-35672",
        "group": "last-30-days",
        "lat": -46.29808203432262,
        "lon": -132.6337135778822,
        "alt_km": 452.2046577802221,
        "timestamp": "2025-12-09T14:52:24.940157+00:00",
        "meta_object_name": "STARLINK-35672",
        "meta_object_id": "2025-257Q",
        "meta_epoch": "2025-12-09T02:41:25.904832",
        "meta_mean_motion": 15.39631651,
        "meta_eccentricity": 0.00012385,
        "meta_inclination": 53.1593,
        "meta_ra_of_asc_node": 281.4337,
        "meta_arg_of_pericenter": 83.799,
        "meta_mean_anomaly": 276.3156,
        "meta_ephemeris_type": 0,
        "meta_classification_type": "U",
        "meta_norad_cat_id": 66394,
        "meta_element_set_no": 999,
        "meta_rev_at_epoch": 581,
        "meta_bstar": 0.0028492606,
        "meta_mean_motion_dot": 0.00115352,
        "meta_mean_motion_ddot": 0,
        "tle_line1": "1 66394U 25257Q   25343.11210538  .00115352  00000+0  28493-2 0  9991",
        "tle_line2": "2 66394  53.1593 281.4337 0001238  83.7990 276.3156 15.39631651  5818"
      },
      "geometry": {
        "type": "Point",
        "coordinates": [
          -132.6337135778822,
          -46.29808203432262
        ]
      }
    },
    {
      "type": "Feature",
      "properties": {
        "norad_id": 66395,
        "name": "STARLINK-35681",
        "group": "last-30-days",
        "lat": -31.569260217191626,
        "lon": -108.43509661818477,
        "alt_km": 451.52569596790636,
        "timestamp": "2025-12-09T14:52:24.940171+00:00",
        "meta_object_name": "STARLINK-35681",
        "meta_object_id": "2025-257R",
        "meta_epoch": "2025-12-09T08:00:01.999872",
        "meta_mean_motion": 15.39556904,
        "meta_eccentricity": 8.163e-05,
        "meta_inclination": 53.1593,
        "meta_ra_of_asc_node": 280.346,
        "meta_arg_of_pericenter": 80.7496,
        "meta_mean_anomaly": 90.3364,
        "meta_ephemeris_type": 0,
        "meta_classification_type": "U",
        "meta_norad_cat_id": 66395,
        "meta_element_set_no": 999,
        "meta_rev_at_epoch": 578,
        "meta_bstar": 0.0019556111,
        "meta_mean_motion_dot": 0.00078469,
        "meta_mean_motion_ddot": 0,
        "tle_line1": "1 66395U 25257R   25343.33335648  .00078469  00000+0  19556-2 0  9993",
        "tle_line2": "2 66395  53.1593 280.3460 0000816  80.7496  90.3364 15.39556904  5781"
      },
      "geometry": {
        "type": "Point",
        "coordinates": [
          -108.43509661818477,
          -31.569260217191626
        ]
      }
    },
    {
      "type": "Feature",
      "properties": {
        "norad_id": 66396,
        "name": "STARLINK-35669",
        "group": "last-30-days",
        "lat": -30.258437182117667,
        "lon": -106.94518612312478,
        "alt_km": 451.4439221730281,
        "timestamp": "2025-12-09T14:52:24.940183+00:00",
        "meta_object_name": "STARLINK-35669",
        "meta_object_id": "2025-257S",
        "meta_epoch": "2025-12-09T08:00:01.999872",
        "meta_mean_motion": 15.39554834,
        "meta_eccentricity": 9.229e-05,
        "meta_inclination": 53.1594,
        "meta_ra_of_asc_node": 280.3413,
        "meta_arg_of_pericenter": 78.0251,
        "meta_mean_anomaly": 94.9,
        "meta_ephemeris_type": 0,
        "meta_classification_type": "U",
        "meta_norad_cat_id": 66396,
        "meta_element_set_no": 999,
        "meta_rev_at_epoch": 594,
        "meta_bstar": 0.0019711206,
        "meta_mean_motion_dot": 0.00079095,
        "meta_mean_motion_ddot": 0,
        "tle_line1": "1 66396U 25257S   25343.33335648  .00079095  00000+0  19711-2 0  9993",
        "tle_line2": "2 66396  53.1594 280.3413 0000922  78.0251  94.9000 15.39554834  5943"
      },
      "geometry": {
        "type": "Point",
        "coordinates": [
          -106.94518612312478,
          -30.258437182117667
        ]
      }
    },
    {
      "type": "Feature",
      "properties": {
        "norad_id": 66397,
        "name": "STARLINK-35510",
        "group": "last-30-days",
        "lat": -12.07353389686744,
        "lon": -90.28358758989236,
        "alt_km": 449.6292898057327,
        "timestamp": "2025-12-09T14:52:24.940193+00:00",
        "meta_object_name": "STARLINK-35510",
        "meta_object_id": "2025-257T",
        "meta_epoch": "2025-12-09T08:00:01.999872",
        "meta_mean_motion": 15.39563678,
        "meta_eccentricity": 0.00013034,
        "meta_inclination": 53.1597,
        "meta_ra_of_asc_node": 280.2942,
        "meta_arg_of_pericenter": 76.0118,
        "meta_mean_anomaly": 120.8081,
        "meta_ephemeris_type": 0,
        "meta_classification_type": "U",
        "meta_norad_cat_id": 66397,
        "meta_element_set_no": 999,
        "meta_rev_at_epoch": 594,
        "meta_bstar": 0.001887516,
        "meta_mean_motion_dot": 0.00075712,
        "meta_mean_motion_ddot": 0,
        "tle_line1": "1 66397U 25257T   25343.33335648  .00075712  00000+0  18875-2 0  9996",
        "tle_line2": "2 66397  53.1597 280.2942 0001303  76.0118 120.8081 15.39563678  5941"
      },
      "geometry": {
        "type": "Point",
        "coordinates": [
          -90.28358758989236,
          -12.07353389686744
        ]
      }
    },
    {
      "type": "Feature",
      "properties": {
        "norad_id": 66398,
        "name": "STARLINK-35642",
        "group": "last-30-days",
        "lat": 8.46463553718177,
        "lon": -74.70102014022969,
        "alt_km": 446.4953433392666,
        "timestamp": "2025-12-09T14:52:24.940204+00:00",
        "meta_object_name": "STARLINK-35642",
        "meta_object_id": "2025-257U",
        "meta_epoch": "2025-12-09T08:00:01.999872",
        "meta_mean_motion": 15.39565785,
        "meta_eccentricity": 0.00015156,
        "meta_inclination": 53.1595,
        "meta_ra_of_asc_node": 280.2426,
        "meta_arg_of_pericenter": 70.9329,
        "meta_mean_anomaly": 151.6383,
        "meta_ephemeris_type": 0,
        "meta_classification_type": "U",
        "meta_norad_cat_id": 66398,
        "meta_element_set_no": 999,
        "meta_rev_at_epoch": 595,
        "meta_bstar": 0.0019480379,
        "meta_mean_motion_dot": 0.00078184,
        "meta_mean_motion_ddot": 0,
        "tle_line1": "1 66398U 25257U   25343.33335648  .00078184  00000+0  19480-2 0  9996",
        "tle_line2": "2 66398  53.1595 280.2426 0001515  70.9329 151.6383 15.39565785  5958"
      },
      "geometry": {
        "type": "Point",
        "coordinates": [
          -74.70102014022969,
          8.46463553718177
        ]
      }
    },
    {
      "type": "Feature",
      "properties": {
        "norad_id": 66399,
        "name": "STARLINK-35657",
        "group": "last-30-days",
        "lat": -10.617364264812313,
        "lon": -89.13897011830248,
        "alt_km": 449.5222146164888,
        "timestamp": "2025-12-09T14:52:24.940215+00:00",
        "meta_object_name": "STARLINK-35657",
        "meta_object_id": "2025-257V",
        "meta_epoch": "2025-12-09T08:00:01.999872",
        "meta_mean_motion": 15.39559673,
        "meta_eccentricity": 0.00010791,
        "meta_inclination": 53.1596,
        "meta_ra_of_asc_node": 280.29,
        "meta_arg_of_pericenter": 81.2976,
        "meta_mean_anomaly": 117.3647,
        "meta_ephemeris_type": 0,
        "meta_classification_type": "U",
        "meta_norad_cat_id": 66399,
        "meta_element_set_no": 999,
        "meta_rev_at_epoch": 595,
        "meta_bstar": 0.0019384931,
        "meta_mean_motion_dot": 0.00077778,
        "meta_mean_motion_ddot": 0,
        "tle_line1": "1 66399U 25257V   25343.33335648  .00077778  00000+0  19385-2 0  9999",
        "tle_line2": "2 66399  53.1596 280.2900 0001079  81.2976 117.3647 15.39559673  5956"
      },
      "geometry": {
        "type": "Point",
        "coordinates": [
          -89.13897011830248,
          -10.617364264812313
        ]
      }
    },
    {
      "type": "Feature",
      "properties": {
        "norad_id": 66400,
        "name": "STARLINK-35667",
        "group": "last-30-days",
        "lat": 28.33225603352831,
        "lon": -57.31609536033404,
        "alt_km": 443.2563711598914,
        "timestamp": "2025-12-09T14:52:24.940225+00:00",
        "meta_object_name": "STARLINK-35667",
        "meta_object_id": "2025-257W",
        "meta_epoch": "2025-12-09T08:00:01.999872",
        "meta_mean_motion": 15.39561771,
        "meta_eccentricity": 0.00013811,
        "meta_inclination": 53.1593,
        "meta_ra_of_asc_node": 280.1904,
        "meta_arg_of_pericenter": 82.2456,
        "meta_mean_anomaly": 166.0853,
        "meta_ephemeris_type": 0,
        "meta_classification_type": "U",
        "meta_norad_cat_id": 66400,
        "meta_element_set_no": 999,
        "meta_rev_at_epoch": 595,
        "meta_bstar": 0.001955772,
        "meta_mean_motion_dot": 0.00078488,
        "meta_mean_motion_ddot": 0,
        "tle_line1": "1 66400U 25257W   25343.33335648  .00078488  00000+0  19558-2 0  9993",
        "tle_line2": "2 66400  53.1593 280.1904 0001381  82.2456 166.0853 15.39561771  5951"
      },
      "geometry": {
        "type": "Point",
        "coordinates": [
          -57.31609536033404,
          28.33225603352831
        ]
      }
    }
  ]
}